ONEWEB-0120             
1 47266U 20100J   24137.77278629 -.00002846  00000+0 -79494-2 0  9999
2 47266  87.8898 142.2624 0001234  91.2208 268.9062 13.12431130164854
ONEWEB-0121             
1 47267U 20100K   24137.76149562  .00000373  00000+0  10016-2 0  9998
2 47267  87.8923 142.2614 0002031  94.8087 265.3274 13.12446874164760
ONEWEB-0122             
1 47268U 20100L   24137.75661061  .00000232  00000+0  61047-3 0  9996
2 47268  87.8924 142.2670 0002202  90.9796 269.1585 13.12443974164673
ONEWEB-0123             
1 47269U 20100M   24137.75196805  .00000051  00000+0  10555-3 0  9993
2 47269  87.8928 142.2806 0001994  86.3062 273.8294 13.12446538164815
ONEWEB-0124             
1 47270U 20100N   24137.96956694 -.00000282  00000+0 -81953-3 0  9996
2 47270  87.8928 142.2336 0002016  98.6997 261.4359 13.12445421164729
ONEWEB-0125             
1 47271U 20100P   24137.71545549  .00000037  00000+0  66525-4 0  9998
2 47271  87.8928 142.2424 0001649  87.0713 273.0604 13.12441633164753
ONEWEB-0126             
1 47272U 20100Q   24137.74322314 -.00000154  00000+0 -46305-3 0  9990
2 47272  87.8924 142.2449 0002128  87.5744 272.5628 13.12442577164825
ONEWEB-0127             
1 47273U 20100R   24137.70433775  .00000444  00000+0  11986-2 0  9997
2 47273  87.8929 142.2796 0002121  88.4280 271.7091 13.12443922164846
